[{"OBJECT_NAME":"STARLINK-3310","OBJECT_ID":"2022-001AJ","EPOCH":"2026-03-09T13:45:09.156096","MEAN_MOTION":15.08839732,"ECCENTRICITY":0.0001412,"INCLINATION":53.2173,"RA_OF_ASC_NODE":179.7632,"ARG_OF_PERICENTER":72.1711,"MEAN_ANOMALY":287.9435,"EPHEMERIS_TYPE":0,"CLASSIFICATION_TYPE":"U","NORAD_CAT_ID":50835,"ELEMENT_SET_NO":999,"REV_AT_EPOCH":23024,"BSTAR":3.0092e-5,"MEAN_MOTION_DOT":1.91e-6,"MEAN_MOTION_DDOT":0},{"OBJECT_NAME":"ATLAS H R\/B","OBJECT_ID":"1987-043B","EPOCH":"2026-03-09T13:01:50.955168","MEAN_MOTION":13.51112774,"ECCENTRICITY":0.07077502,"INCLINATION":63.3177,"RA_OF_ASC_NODE":133.9687,"ARG_OF_PERICENTER":116.0924,"MEAN_ANOMALY":251.4684,"EPHEMERIS_TYPE":0,"CLASSIFICATION_TYPE":"U","NORAD_CAT_ID":17998,"ELEMENT_SET_NO":999,"REV_AT_EPOCH":33779,"BSTAR":0.00041214221,"MEAN_MOTION_DOT":1.232e-5,"MEAN_MOTION_DDOT":0}]
